{
  "type": "FeatureCollection",
  "features": [
    {
      "type": "Feature",
      "properties": {
        "norad_id": 43707,
        "name": "BEIDOU-3 M18 (C37)",
        "group": "beidou",
        "lat": 50.54546400713448,
        "lon": -52.37997603022797,
        "alt_km": 21530.53929589782,
        "timestamp": "2025-12-02T06:27:53.279103+00:00",
        "meta_object_name": "BEIDOU-3 M18 (C37)",
        "meta_object_id": "2018-093B",
        "meta_epoch": "2025-12-01T00:50:13.072128",
        "meta_mean_motion": 1.86226416,
        "meta_eccentricity": 0.0006364,
        "meta_inclination": 54.1734,
        "meta_ra_of_asc_node": 189.0115,
        "meta_arg_of_pericenter": 350.6822,
        "meta_mean_anomaly": 9.3993,
        "meta_ephemeris_type": 0,
        "meta_classification_type": "U",
        "meta_norad_cat_id": 43707,
        "meta_element_set_no": 999,
        "meta_rev_at_epoch": 4784,
        "meta_bstar": 0,
        "meta_mean_motion_dot": 1.18e-06,
        "meta_mean_motion_ddot": 0,
        "tle_line1": "1 43707U 18093B   25335.03487352  .00000118  00000+0  00000+0 0  9990",
        "tle_line2": "2 43707  54.1734 189.0115 0006364 350.6822   9.3993  1.86226416 47849"
      },
      "geometry": {
        "type": "Point",
        "coordinates": [
          -52.37997603022797,
          50.54546400713448
        ]
      }
    },
    {
      "type": "Feature",
      "properties": {
        "norad_id": 44204,
        "name": "BEIDOU-3 IGSO-1 (C38)",
        "group": "beidou",
        "lat": -49.35559622073785,
        "lon": -94.62186869000979,
        "alt_km": 35692.46714852382,
        "timestamp": "2025-12-02T06:27:53.279114+00:00",
        "meta_object_name": "BEIDOU-3 IGSO-1 (C38)",
        "meta_object_id": "2019-023A",
        "meta_epoch": "2025-11-19T14:15:02.708640",
        "meta_mean_motion": 1.00252177,
        "meta_eccentricity": 0.0026966,
        "meta_inclination": 58.4003,
        "meta_ra_of_asc_node": 39.8168,
        "meta_arg_of_pericenter": 221.2202,
        "meta_mean_anomaly": 126.9723,
        "meta_ephemeris_type": 0,
        "meta_classification_type": "U",
        "meta_norad_cat_id": 44204,
        "meta_element_set_no": 999,
        "meta_rev_at_epoch": 510,
        "meta_bstar": 0,
        "meta_mean_motion_dot": -2.26e-06,
        "meta_mean_motion_ddot": 0,
        "tle_line1": "1 44204U 19023A   25323.59378135 -.00000226  00000+0  00000+0 0  9994",
        "tle_line2": "2 44204  58.4003  39.8168 0026966 221.2202 126.9723  1.00252177  5102"
      },
      "geometry": {
        "type": "Point",
        "coordinates": [
          -94.62186869000979,
          -49.35559622073785
        ]
      }
    },
    {
      "type": "Feature",
      "properties": {
        "norad_id": 44231,
        "name": "BEIDOU-2 G8 (C01)",
        "group": "beidou",
        "lat": -1.3880097184920952,
        "lon": -47.138696438514884,
        "alt_km": 35753.70292584527,
        "timestamp": "2025-12-02T06:27:53.279128+00:00",
        "meta_object_name": "BEIDOU-2 G8 (C01)",
        "meta_object_id": "2019-027A",
        "meta_epoch": "2025-12-01T19:38:18.306816",
        "meta_mean_motion": 1.00270736,
        "meta_eccentricity": 0.0008199,
        "meta_inclination": 1.6318,
        "meta_ra_of_asc_node": 74.6903,
        "meta_arg_of_pericenter": 255.2015,
        "meta_mean_anomaly": 180.1944,
        "meta_ephemeris_type": 0,
        "meta_classification_type": "U",
        "meta_norad_cat_id": 44231,
        "meta_element_set_no": 999,
        "meta_rev_at_epoch": 2410,
        "meta_bstar": 0,
        "meta_mean_motion_dot": -2.26e-06,
        "meta_mean_motion_ddot": 0,
        "tle_line1": "1 44231U 19027A   25335.81826744 -.00000226  00000+0  00000+0 0  9990",
        "tle_line2": "2 44231   1.6318  74.6903 0008199 255.2015 180.1944  1.00270736 24101"
      },
      "geometry": {
        "type": "Point",
        "coordinates": [
          -47.138696438514884,
          -1.3880097184920952
        ]
      }
    },
    {
      "type": "Feature",
      "properties": {
        "norad_id": 44337,
        "name": "BEIDOU-3 IGSO-2 (C39)",
        "group": "beidou",
        "lat": 41.06541316459001,
        "lon": -56.7387034567016,
        "alt_km": 35740.90770673031,
        "timestamp": "2025-12-02T06:27:53.279140+00:00",
        "meta_object_name": "BEIDOU-3 IGSO-2 (C39)",
        "meta_object_id": "2019-035A",
        "meta_epoch": "2025-12-01T05:17:49.661952",
        "meta_mean_motion": 1.00274502,
        "meta_eccentricity": 0.00376064,
        "meta_inclination": 55.2223,
        "meta_ra_of_asc_node": 160.6035,
        "meta_arg_of_pericenter": 202.2564,
        "meta_mean_anomaly": 266.4761,
        "meta_ephemeris_type": 0,
        "meta_classification_type": "U",
        "meta_norad_cat_id": 44337,
        "meta_element_set_no": 999,
        "meta_rev_at_epoch": 2368,
        "meta_bstar": 0,
        "meta_mean_motion_dot": -2.5e-07,
        "meta_mean_motion_ddot": 0,
        "tle_line1": "1 44337U 19035A   25335.22071368 -.00000025  00000+0  00000+0 0  9992",
        "tle_line2": "2 44337  55.2223 160.6035 0037606 202.2564 266.4761  1.00274502 23688"
      },
      "geometry": {
        "type": "Point",
        "coordinates": [
          -56.7387034567016,
          41.06541316459001
        ]
      }
    },
    {
      "type": "Feature",
      "properties": {
        "norad_id": 44542,
        "name": "BEIDOU-3 M24 (C46)",
        "group": "beidou",
        "lat": 44.772529780854256,
        "lon": -125.33673555756442,
        "alt_km": 21501.317728666676,
        "timestamp": "2025-12-02T06:27:53.279151+00:00",
        "meta_object_name": "BEIDOU-3 M24 (C46)",
        "meta_object_id": "2019-061A",
        "meta_epoch": "2025-12-01T02:32:46.252896",
        "meta_mean_motion": 1.86229258,
        "meta_eccentricity": 0.00095598,
        "meta_inclination": 54.4002,
        "meta_ra_of_asc_node": 189.409,
        "meta_arg_of_pericenter": 23.5384,
        "meta_mean_anomaly": 336.5991,
        "meta_ephemeris_type": 0,
        "meta_classification_type": "U",
        "meta_norad_cat_id": 44542,
        "meta_element_set_no": 999,
        "meta_rev_at_epoch": 4210,
        "meta_bstar": 0,
        "meta_mean_motion_dot": 1.18e-06,
        "meta_mean_motion_ddot": 0,
        "tle_line1": "1 44542U 19061A   25335.10609089  .00000118  00000+0  00000+0 0  9995",
        "tle_line2": "2 44542  54.4002 189.4090 0009559  23.5384 336.5991  1.86229258 42106"
      },
      "geometry": {
        "type": "Point",
        "coordinates": [
          -125.33673555756442,
          44.772529780854256
        ]
      }
    },
    {
      "type": "Feature",
      "properties": {
        "norad_id": 44543,
        "name": "BEIDOU-3 M23 (C45)",
        "group": "beidou",
        "lat": -21.85669222006738,
        "lon": 172.64857553457722,
        "alt_km": 21519.968386290264,
        "timestamp": "2025-12-02T06:27:53.279162+00:00",
        "meta_object_name": "BEIDOU-3 M23 (C45)",
        "meta_object_id": "2019-061B",
        "meta_epoch": "2025-11-30T16:39:35.372160",
        "meta_mean_motion": 1.86229336,
        "meta_eccentricity": 0.00060049,
        "meta_inclination": 54.3987,
        "meta_ra_of_asc_node": 189.3914,
        "meta_arg_of_pericenter": 20.8242,
        "meta_mean_anomaly": 335.9718,
        "meta_ephemeris_type": 0,
        "meta_classification_type": "U",
        "meta_norad_cat_id": 44543,
        "meta_element_set_no": 999,
        "meta_rev_at_epoch": 4209,
        "meta_bstar": 0,
        "meta_mean_motion_dot": 1.15e-06,
        "meta_mean_motion_ddot": 0,
        "tle_line1": "1 44543U 19061B   25334.69415940  .00000115  00000+0  00000+0 0  9997",
        "tle_line2": "2 44543  54.3987 189.3914 0006004  20.8242 335.9718  1.86229336 42092"
      },
      "geometry": {
        "type": "Point",
        "coordinates": [
          172.64857553457722,
          -21.85669222006738
        ]
      }
    },
    {
      "type": "Feature",
      "properties": {
        "norad_id": 44709,
        "name": "BEIDOU-3 IGSO-3 (C40)",
        "group": "beidou",
        "lat": -0.1040628799105638,
        "lon": -77.0858069411408,
        "alt_km": 35977.84122350321,
        "timestamp": "2025-12-02T06:27:53.279174+00:00",
        "meta_object_name": "BEIDOU-3 IGSO-3 (C40)",
        "meta_object_id": "2019-073A",
        "meta_epoch": "2025-11-20T07:11:22.740000",
        "meta_mean_motion": 1.00250097,
        "meta_eccentricity": 0.0044538,
        "meta_inclination": 55.163,
        "meta_ra_of_asc_node": 283.159,
        "meta_arg_of_pericenter": 191.5856,
        "meta_mean_anomaly": 168.2409,
        "meta_ephemeris_type": 0,
        "meta_classification_type": "U",
        "meta_norad_cat_id": 44709,
        "meta_element_set_no": 999,
        "meta_rev_at_epoch": 2236,
        "meta_bstar": 0,
        "meta_mean_motion_dot": -2.06e-06,
        "meta_mean_motion_ddot": 0,
        "tle_line1": "1 44709U 19073A   25324.29956875 -.00000206  00000+0  00000+0 0  9998",
        "tle_line2": "2 44709  55.1630 283.1590 0044538 191.5856 168.2409  1.00250097 22360"
      },
      "geometry": {
        "type": "Point",
        "coordinates": [
          -77.0858069411408,
          -0.1040628799105638
        ]
      }
    }
  ]
}